{
  "type": "FeatureCollection",
  "features": [
    {
      "type": "Feature",
      "properties": {
        "norad_id": 66615,
        "name": "STARLINK-35988",
        "group": "last-30-days",
        "lat": -22.324068296179053,
        "lon": -131.68423810015238,
        "alt_km": 329.2517434287902,
        "timestamp": "2025-12-02T08:59:31.504983+00:00",
        "meta_object_name": "STARLINK-35988",
        "meta_object_id": "2025-270AD",
        "meta_epoch": "2025-12-01T18:00:02.998944",
        "meta_mean_motion": 15.83415826,
        "meta_eccentricity": 0.0001733,
        "meta_inclination": 42.9987,
        "meta_ra_of_asc_node": 258.2936,
        "meta_arg_of_pericenter": 259.5387,
        "meta_mean_anomaly": 104.4515,
        "meta_ephemeris_type": 0,
        "meta_classification_type": "U",
        "meta_norad_cat_id": 66615,
        "meta_element_set_no": 999,
        "meta_rev_at_epoch": 247,
        "meta_bstar": -0.0091831,
        "meta_mean_motion_dot": -0.01817094,
        "meta_mean_motion_ddot": 0,
        "tle_line1": "1 66615U 25270AD  25335.75003471 -.01817094  00000+0 -91831-2 0  9990",
        "tle_line2": "2 66615  42.9987 258.2936 0001733 259.5387 104.4515 15.83415826  2479"
      },
      "geometry": {
        "type": "Point",
        "coordinates": [
          -131.68423810015238,
          -22.324068296179053
        ]
      }
    },
    {
      "type": "Feature",
      "properties": {
        "norad_id": 66616,
        "name": "STARLINK-35391",
        "group": "last-30-days",
        "lat": -19.934588923759005,
        "lon": -128.4529698196145,
        "alt_km": 328.99945603944707,
        "timestamp": "2025-12-02T08:59:31.504994+00:00",
        "meta_object_name": "STARLINK-35391",
        "meta_object_id": "2025-270AE",
        "meta_epoch": "2025-12-01T18:00:02.998944",
        "meta_mean_motion": 15.83455157,
        "meta_eccentricity": 0.0001713,
        "meta_inclination": 42.9988,
        "meta_ra_of_asc_node": 258.2841,
        "meta_arg_of_pericenter": 262.9224,
        "meta_mean_anomaly": 104.8599,
        "meta_ephemeris_type": 0,
        "meta_classification_type": "U",
        "meta_norad_cat_id": 66616,
        "meta_element_set_no": 999,
        "meta_rev_at_epoch": 274,
        "meta_bstar": -0.0092499,
        "meta_mean_motion_dot": -0.018317,
        "meta_mean_motion_ddot": 0,
        "tle_line1": "1 66616U 25270AE  25335.75003471 -.01831700  00000+0 -92499-2 0  9992",
        "tle_line2": "2 66616  42.9988 258.2841 0001713 262.9224 104.8599 15.83455157  2749"
      },
      "geometry": {
        "type": "Point",
        "coordinates": [
          -128.4529698196145,
          -19.934588923759005
        ]
      }
    },
    {
      "type": "Feature",
      "properties": {
        "norad_id": 66645,
        "name": "SHENZHOU-22",
        "group": "last-30-days",
        "lat": -23.987697588893717,
        "lon": -70.14084489225215,
        "alt_km": 394.7526133695119,
        "timestamp": "2025-12-02T08:59:31.505006+00:00",
        "meta_object_name": "SHENZHOU-22",
        "meta_object_id": "2025-272A",
        "meta_epoch": "2025-12-01T15:08:36.996864",
        "meta_mean_motion": 15.5848082,
        "meta_eccentricity": 0.00103969,
        "meta_inclination": 41.4671,
        "meta_ra_of_asc_node": 84.1132,
        "meta_arg_of_pericenter": 308.0304,
        "meta_mean_anomaly": 51.9595,
        "meta_ephemeris_type": 0,
        "meta_classification_type": "U",
        "meta_norad_cat_id": 66645,
        "meta_element_set_no": 999,
        "meta_rev_at_epoch": 26230,
        "meta_bstar": 0.00025188161,
        "meta_mean_motion_dot": 0.00019534,
        "meta_mean_motion_ddot": 0,
        "tle_line1": "1 66645U 25272A   25335.63098376  .00019534  00000+0  25188-3 0  9993",
        "tle_line2": "2 66645  41.4671  84.1132 0010396 308.0304  51.9595 15.58480820262306"
      },
      "geometry": {
        "type": "Point",
        "coordinates": [
          -70.14084489225215,
          -23.987697588893717
        ]
      }
    },
    {
      "type": "Feature",
      "properties": {
        "norad_id": 66646,
        "name": "CZ-2F R/B",
        "group": "last-30-days",
        "lat": -29.129287892441532,
        "lon": 37.363633124078326,
        "alt_km": 303.86277834849625,
        "timestamp": "2025-12-02T08:59:31.505016+00:00",
        "meta_object_name": "CZ-2F R/B",
        "meta_object_id": "2025-272B",
        "meta_epoch": "2025-11-26T11:17:54.506400",
        "meta_mean_motion": 16.01945612,
        "meta_eccentricity": 0.01210796,
        "meta_inclination": 41.4431,
        "meta_ra_of_asc_node": 114.9009,
        "meta_arg_of_pericenter": 133.7676,
        "meta_mean_anomaly": 227.3272,
        "meta_ephemeris_type": 0,
        "meta_classification_type": "U",
        "meta_norad_cat_id": 66646,
        "meta_element_set_no": 999,
        "meta_rev_at_epoch": 21,
        "meta_bstar": 0.00029319366,
        "meta_mean_motion_dot": 0.00449059,
        "meta_mean_motion_ddot": 7.567612e-06,
        "tle_line1": "1 66646U 25272B   25330.47076975  .00449059  75676-5  29319-3 0  9998",
        "tle_line2": "2 66646  41.4431 114.9009 0121079 133.7676 227.3272 16.01945612   217"
      },
      "geometry": {
        "type": "Point",
        "coordinates": [
          37.363633124078326,
          -29.129287892441532
        ]
      }
    },
    {
      "type": "Feature",
      "properties": {
        "norad_id": 66647,
        "name": "COSMOS 2597 (RODNIK-S 22)",
        "group": "last-30-days",
        "lat": -48.439693673321486,
        "lon": 121.43275501174863,
        "alt_km": 1504.4589886694848,
        "timestamp": "2025-12-02T08:59:31.505026+00:00",
        "meta_object_name": "COSMOS 2597 (RODNIK-S 22)",
        "meta_object_id": "2025-273A",
        "meta_epoch": "2025-12-02T03:53:44.102400",
        "meta_mean_motion": 12.41951049,
        "meta_eccentricity": 0.0008172,
        "meta_inclination": 82.498,
        "meta_ra_of_asc_node": 293.0182,
        "meta_arg_of_pericenter": 313.9141,
        "meta_mean_anomaly": 46.1263,
        "meta_ephemeris_type": 0,
        "meta_classification_type": "U",
        "meta_norad_cat_id": 66647,
        "meta_element_set_no": 999,
        "meta_rev_at_epoch": 82,
        "meta_bstar": -4.6604e-05,
        "meta_mean_motion_dot": 3e-08,
        "meta_mean_motion_ddot": 0,
        "tle_line1": "1 66647U 25273A   25336.16231600  .00000003  00000+0 -46604-4 0  9993",
        "tle_line2": "2 66647  82.4980 293.0182 0008172 313.9141  46.1263 12.41951049   825"
      },
      "geometry": {
        "type": "Point",
        "coordinates": [
          121.43275501174863,
          -48.439693673321486
        ]
      }
    },
    {
      "type": "Feature",
      "properties": {
        "norad_id": 66648,
        "name": "COSMOS 2598 (RODNIK-S 23)",
        "group": "last-30-days",
        "lat": -55.57362083572689,
        "lon": 123.96935267781475,
        "alt_km": 1501.3756946478807,
        "timestamp": "2025-12-02T08:59:31.505039+00:00",
        "meta_object_name": "COSMOS 2598 (RODNIK-S 23)",
        "meta_object_id": "2025-273B",
        "meta_epoch": "2025-12-02T03:51:27.122112",
        "meta_mean_motion": 12.42253014,
        "meta_eccentricity": 0.0008253,
        "meta_inclination": 82.5022,
        "meta_ra_of_asc_node": 293.0251,
        "meta_arg_of_pericenter": 302.5587,
        "meta_mean_anomaly": 57.4695,
        "meta_ephemeris_type": 0,
        "meta_classification_type": "U",
        "meta_norad_cat_id": 66648,
        "meta_element_set_no": 999,
        "meta_rev_at_epoch": 82,
        "meta_bstar": -0.00019943,
        "meta_mean_motion_dot": -1.8e-07,
        "meta_mean_motion_ddot": 0,
        "tle_line1": "1 66648U 25273B   25336.16073058 -.00000018  00000+0 -19943-3 0  9997",
        "tle_line2": "2 66648  82.5022 293.0251 0008253 302.5587  57.4695 12.42253014   821"
      },
      "geometry": {
        "type": "Point",
        "coordinates": [
          123.96935267781475,
          -55.57362083572689
        ]
      }
    },
    {
      "type": "Feature",
      "properties": {
        "norad_id": 66649,
        "name": "COSMOS 2599 (RODNIK-S 24)",
        "group": "last-30-days",
        "lat": -41.811716679020456,
        "lon": 119.66113075820225,
        "alt_km": 1507.2855824783928,
        "timestamp": "2025-12-02T08:59:31.505049+00:00",
        "meta_object_name": "COSMOS 2599 (RODNIK-S 24)",
        "meta_object_id": "2025-273C",
        "meta_epoch": "2025-12-02T03:55:50.791584",
        "meta_mean_motion": 12.4167177,
        "meta_eccentricity": 0.0008404,
        "meta_inclination": 82.5022,
        "meta_ra_of_asc_node": 293.0275,
        "meta_arg_of_pericenter": 324.1299,
        "meta_mean_anomaly": 35.9215,
        "meta_ephemeris_type": 0,
        "meta_classification_type": "U",
        "meta_norad_cat_id": 66649,
        "meta_element_set_no": 999,
        "meta_rev_at_epoch": 82,
        "meta_bstar": -0.00015539,
        "meta_mean_motion_dot": -1.1e-07,
        "meta_mean_motion_ddot": 0,
        "tle_line1": "1 66649U 25273C   25336.16378231 -.00000011  00000+0 -15539-3 0  9999",
        "tle_line2": "2 66649  82.5022 293.0275 0008404 324.1299  35.9215 12.41671770   827"
      },
      "geometry": {
        "type": "Point",
        "coordinates": [
          119.66113075820225,
          -41.811716679020456
        ]
      }
    }
  ]
}